NORAD_CAT_ID,OBJECT_NAME,OBJECT_TYPE,EPOCH,MEAN_MOTION,ECCENTRICITY,INCLINATION,RA_OF_ASC_NODE,ARG_OF_PERICENTER,MEAN_ANOMALY,BSTAR,MEAN_MOTION_DOT,MEAN_MOTION_DDOT,TLE_LINE0,TLE_LINE1,TLE_LINE2,SEMIMAJOR_AXIS,PERIOD,APOGEE,PERIGEE,DECAYED
53285.0,STARLINK-4173,PAYLOAD,2023-03-29 03:00:32,15.08862143,0.0001184,53.2163,337.009,85.1847,274.928,0.0005214,8.025e-05,0.0,0 STARLINK-4173,1 53285U 22086AV  23088.12537637  .00008025  00000-0  52140-3 0  9996,2 53285  53.2163 337.0090 0001184  85.1847 274.9280 15.08862143 38667,6917.813,95.436,540.497,538.859,0.0
53285.0,STARLINK-4173,PAYLOAD,2023-03-29 20:29:47,15.08835423,0.0001064,53.216,333.7381,106.9476,253.1633,0.00011933,1.612e-05,0.0,0 STARLINK-4173,1 53285U 22086AV  23088.85402147  .00001612  00000-0  11933-3 0  9993,2 53285  53.2160 333.7381 0001064 106.9476 253.1633 15.08835423 38614,6917.894,95.438,540.495,539.023,0.0
53285.0,STARLINK-4173,PAYLOAD,2023-03-30 02:51:19,15.08856661,0.0001216,53.2158,332.5476,87.6533,272.4598,0.0011391,0.00017895,0.0,0 STARLINK-4173,1 53285U 22086AV  23089.11898104  .00017895  00000-0  11391-2 0  9992,2 53285  53.2158 332.5476 0001216  87.6533 272.4598 15.08856661 38656,6917.829,95.437,540.536,538.853,0.0
53285.0,STARLINK-4173,PAYLOAD,2023-03-31 01:06:44,15.08863454,0.0001115,53.2161,328.3852,105.6569,254.4546,0.0020728,0.00032876,0.0,0 STARLINK-4173,1 53285U 22086AV  23090.04634269  .00032876  00000-0  20728-2 0  9996,2 53285  53.2161 328.3852 0001115 105.6569 254.4546 15.08863454 38795,6917.809,95.436,540.445,538.902,0.0
53285.0,STARLINK-4173,PAYLOAD,2023-03-31 15:25:12,15.08837809,0.0001184,53.2159,325.7086,112.0702,248.0416,0.0018802,0.0002976,0.0,0 STARLINK-4173,1 53285U 22086AV  23090.64250813  .00029760  00000-0  18802-2 0  9999,2 53285  53.2159 325.7086 0001184 112.0702 248.0416 15.08837809 38889,6917.887,95.438,540.571,538.933,0.0
53285.0,STARLINK-4173,PAYLOAD,2023-04-01 00:57:31,15.08852307,8.97e-05,53.2155,323.9237,97.2725,262.8369,0.0015103,0.00023838,0.0,0 STARLINK-4173,1 53285U 22086AV  23091.03994692  .00023838  00000-0  15103-2 0  9994,2 53285  53.2155 323.9237 0000897  97.2725 262.8369 15.08852307 39109,6917.843,95.437,540.328,539.087,0.0
53285.0,STARLINK-4173,PAYLOAD,2023-04-01 15:16:00,15.08839137,6.06e-05,53.216,321.2488,106.1184,253.9875,0.0011618,0.0001825,0.0,0 STARLINK-4173,1 53285U 22086AV  23091.63611307  .00018250  00000-0  11618-2 0  9998,2 53285  53.2160 321.2488 0000606 106.1184 253.9875 15.08839137 39032,6917.883,95.438,540.167,539.329,0.0
53285.0,STARLINK-4173,PAYLOAD,2023-04-01 21:37:32,15.08845259,8.57e-05,53.2158,320.0613,68.63,291.4783,0.0014613,0.00023048,0.0,0 STARLINK-4173,1 53285U 22086AV  23091.90107416  .00023048  00000-0  14613-2 0  9998,2 53285  53.2158 320.0613 0000857  68.6300 291.4783 15.08845259 39235,6917.864,95.437,540.322,539.136,0.0
53285.0,STARLINK-4173,PAYLOAD,2023-04-02 21:28:19,15.08855344,9.23e-05,53.2152,315.6005,78.1718,281.9378,0.00069157,0.0001074,0.0,0 STARLINK-4173,1 53285U 22086AV  23092.89467056  .00010740  00000-0  69157-3 0  9995,2 53285  53.2152 315.6005 0000923  78.1718 281.9378 15.08855344 39226,6917.833,95.437,540.337,539.06,0.0
53285.0,STARLINK-4173,PAYLOAD,2023-04-03 13:22:10,15.08858268,0.0001085,53.2163,312.6288,83.0365,277.075,0.00038276,5.812e-05,0.0,0 STARLINK-4173,1 53285U 22086AV  23093.55706447  .00005812  00000-0  38276-3 0  9991,2 53285  53.2163 312.6288 0001085  83.0365 277.0750 15.08858268 39487,6917.825,95.436,540.44,538.939,0.0
53285.0,STARLINK-4173,PAYLOAD,2023-04-03 21:19:06,15.08842072,0.0001052,53.2162,311.1402,83.9635,276.1477,0.00016377,2.32e-05,0.0,0 STARLINK-4173,1 53285U 22086AV  23093.88826890  .00002320  00000-0  16377-3 0  9991,2 53285  53.2162 311.1402 0001052  83.9635 276.1477 15.08842072 39539,6917.874,95.437,540.467,539.011,0.0
53285.0,STARLINK-4173,PAYLOAD,2023-04-04 00:29:52,15.08849338,9.18e-05,53.2148,310.5439,76.2277,283.8817,0.00019306,2.787e-05,0.0,0 STARLINK-4173,1 53285U 22086AV  23094.02074706  .00002787  00000-0  19306-3 0  9991,2 53285  53.2148 310.5439 0000918  76.2277 283.8817 15.08849338 39392,6917.852,95.437,540.352,539.082,0.0
53285.0,STARLINK-4173,PAYLOAD,2023-04-05 00:20:39,15.08846825,0.0001088,53.2159,306.0798,95.953,264.1586,4.3234e-05,4e-06,0.0,0 STARLINK-4173,1 53285U 22086AV  23095.01434493  .00000400  00000-0  43234-4 0  9992,2 53285  53.2159 306.0798 0001088  95.9530 264.1586 15.08846825 39541,6917.86,95.437,540.477,538.972,0.0
53285.0,STARLINK-4173,PAYLOAD,2023-04-05 21:00:40,15.08838014,8.71e-05,53.2136,302.2167,91.549,268.5602,6.7489e-06,-1.8e-06,0.0,0 STARLINK-4173,1 53285U 22086AV  23095.87547057 -.00000180  00000-0  67489-5 0  9992,2 53285  53.2136 302.2167 0000871  91.5490 268.5602 15.08838014 39672,6917.886,95.438,540.354,539.149,0.0
53285.0,STARLINK-4173,PAYLOAD,2023-04-06 00:11:27,15.08812846,8.45e-05,53.2118,301.6256,77.8513,282.2574,-0.00025156,-4.286e-05,0.0,0 STARLINK-4173,1 53285U 22086AV  23096.00796282 -.00004286  00000-0 -25156-3 0  9999,2 53285  53.2118 301.6256 0000845  77.8513 282.2574 15.08812846 39696,6917.963,95.439,540.413,539.244,0.0
53285.0,STARLINK-4173,PAYLOAD,2023-04-06 12:54:33,15.08816911,5.02e-05,53.2138,299.2456,112.8445,247.26,-0.0001258,-2.288e-05,0.0,0 STARLINK-4173,1 53285U 22086AV  23096.53788923 -.00002288  00000-0 -12580-3 0  9997,2 53285  53.2138 299.2456 0000502 112.8445 247.2600 15.08816911 39931,6917.951,95.439,540.163,539.469,0.0
53285.0,STARLINK-4173,PAYLOAD,2023-04-06 16:05:19,15.08823771,0.0001242,53.2145,298.6511,72.5415,287.5713,-0.00016507,-2.913e-05,0.0,0 STARLINK-4173,1 53285U 22086AV  23096.67036994 -.00002913  00000-0 -16507-3 0  9994,2 53285  53.2145 298.6511 0001242  72.5415 287.5713 15.08823771 39793,6917.93,95.439,540.654,538.936,0.0
53285.0,STARLINK-4173,PAYLOAD,2023-04-07 20:42:16,15.08845174,0.0001286,53.2141,293.2977,70.9436,289.1695,0.00034124,5.148e-05,0.0,0 STARLINK-4173,1 53285U 22086AV  23097.86268534  .00005148  00000-0  34124-3 0  9999,2 53285  53.2141 293.2977 0001286  70.9436 289.1695 15.08845174 39977,6917.865,95.437,540.619,538.84,0.0
53285.0,STARLINK-4173,PAYLOAD,2023-04-07 23:53:01,15.08858331,0.0001233,53.2147,292.7027,73.766,286.3468,0.0005206,8.011e-05,0.0,0 STARLINK-4173,1 53285U 22086AV  23097.99515923  .00008011  00000-0  52060-3 0  9991,2 53285  53.2147 292.7027 0001233  73.7660 286.3468 15.08858331 39993,6917.824,95.436,540.542,538.836,0.0
53285.0,STARLINK-4173,PAYLOAD,2023-04-08 06:14:35,15.08847259,0.0001339,53.2137,291.5137,75.0035,285.1105,0.0003469,5.238e-05,0.0,0 STARLINK-4173,1 53285U 22086AV  23098.26012789  .00005238  00000-0  34690-3 0  9991,2 53285  53.2137 291.5137 0001339  75.0035 285.1105 15.08847259 40038,6917.858,95.437,540.65,538.797,0.0
53285.0,STARLINK-4173,PAYLOAD,2023-04-08 23:43:48,15.08861283,0.0001354,53.2144,288.2402,79.3356,280.7788,0.00033803,5.099e-05,0.0,0 STARLINK-4173,1 53285U 22086AV  23098.98875641  .00005099  00000-0  33803-3 0  9994,2 53285  53.2144 288.2402 0001354  79.3356 280.7788 15.08861283 40147,6917.815,95.436,540.617,538.744,0.0
53285.0,STARLINK-4173,PAYLOAD,2023-04-09 18:48:26,15.0884845,0.0001201,53.2154,284.6723,78.088,282.0246,-1.0558e-05,-4.56e-06,0.0,0 STARLINK-4173,1 53285U 22086AV  23099.78363599 -.00000456  00000-0 -10558-4 0  9994,2 53285  53.2154 284.6723 0001201  78.0880 282.0246 15.08848450 40429,6917.855,95.437,540.55,538.889,0.0
53285.0,STARLINK-4173,PAYLOAD,2023-04-09 21:59:12,15.0884845,0.0001247,53.2148,284.0764,81.819,278.2944,0.00014087,1.955e-05,0.0,0 STARLINK-4173,1 53285U 22086AV  23099.91611574  .00001955  00000-0  14087-3 0  9991,2 53285  53.2148 284.0764 0001247  81.8190 278.2944 15.08848450 40283,6917.855,95.437,540.582,538.857,0.0
53285.0,STARLINK-4173,PAYLOAD,2023-04-10 18:39:13,15.08852193,0.0001335,53.2145,280.2092,89.0569,271.0576,0.00037007,5.609e-05,0.0,0 STARLINK-4173,1 53285U 22086AV  23100.77723480  .00005609  00000-0  37007-3 0  9995,2 53285  53.2145 280.2092 0001335  89.0569 271.0576 15.08852193 40573,6917.843,95.437,540.632,538.785,0.0
53285.0,STARLINK-4173,PAYLOAD,2023-04-11 13:43:50,15.0884075,9.75e-05,53.2144,276.6406,94.0927,266.0177,0.00010317,1.355e-05,0.0,0 STARLINK-4173,1 53285U 22086AV  23101.57211678  .00001355  00000-0  10317-3 0  9994,2 53285  53.2144 276.6406 0000975  94.0927 266.0177 15.08840750 40693,6917.878,95.438,540.418,539.069,0.0
53285.0,STARLINK-4173,PAYLOAD,2023-04-11 18:30:00,15.08848478,0.0001156,53.2144,275.7501,92.0332,268.0793,0.00026654,3.958e-05,0.0,0 STARLINK-4173,1 53285U 22086AV  23101.77083488  .00003958  00000-0  26654-3 0  9994,2 53285  53.2144 275.7501 0001156  92.0332 268.0793 15.08848478 40724,6917.854,95.437,540.519,538.92,0.0
53285.0,STARLINK-4173,PAYLOAD,2023-04-12 11:59:14,15.08839285,0.0001006,53.2154,272.479,101.6617,258.4488,9.4421e-05,1.215e-05,0.0,0 STARLINK-4173,1 53285U 22086AV  23102.49947561  .00001215  00000-0  94421-4 0  9997,2 53285  53.2154 272.4790 0001006 101.6617 258.4488 15.08839285 40838,6917.883,95.438,540.444,539.052,0.0
53285.0,STARLINK-4173,PAYLOAD,2023-04-13 10:14:38,15.08843966,0.0001035,53.216,268.3169,288.2105,71.8774,0.00033227,5.005e-05,0.0,0 STARLINK-4173,1 53285U 22086AV  23103.42683505  .00005005  00000-0  33227-3 0  9993,2 53285  53.2160 268.3169 0001035 288.2105  71.8774 15.08843966 40976,6917.868,95.437,540.449,539.017,0.0
53285.0,STARLINK-4173,PAYLOAD,2023-04-13 11:50:01,15.08840148,2.99e-05,53.2162,268.0192,51.4758,308.6261,0.00010055,1.313e-05,0.0,0 STARLINK-4173,1 53285U 22086AV  23103.49307620  .00001313  00000-0  10055-3 0  9993,2 53285  53.2162 268.0192 0000299  51.4758 308.6261 15.08840148 40821,6917.88,95.438,539.952,539.538,0.0
53285.0,STARLINK-4173,PAYLOAD,2023-04-14 10:05:26,15.08834739,0.0001657,53.2081,263.8521,71.1934,288.9238,7.2227e-05,8.61e-06,0.0,0 STARLINK-4173,1 53285U 22086AV  23104.42044088  .00000861  00000-0  72227-4 0  9990,2 53285  53.2081 263.8521 0001657  71.1934 288.9238 15.08834739 41121,6917.896,95.438,540.908,538.615,0.0
